COMMENT,ORIGINATOR,NORAD_CAT_ID,OBJECT_NAME,OBJECT_TYPE,CLASSIFICATION_TYPE,INTLDES,EPOCH,EPOCH_MICROSECONDS,MEAN_MOTION,ECCENTRICITY,INCLINATION,RA_OF_ASC_NODE,ARG_OF_PERICENTER,MEAN_ANOMALY,EPHEMERIS_TYPE,ELEMENT_SET_NO,REV_AT_EPOCH,BSTAR,MEAN_MOTION_DOT,MEAN_MOTION_DDOT,FILE,TLE_LINE0,TLE_LINE1,TLE_LINE2,OBJECT_ID,OBJECT_NUMBER,SEMIMAJOR_AXIS,PERIOD,APOGEE,PERIGEE,DECAYED
"GENERATED VIA SPACETRACK.ORG API","18 SPCS","48897","SPACEBEE-109","PAYLOAD","U","21059U","2023-03-20 08:16:55","658496","15.26117747","0.0008666","97.5836","214.8744","224.0402","136.0146","0","999","9583","0.0014458","0.00037421","0","3865912","0 SPACEBEE-109","1 48897U 21059U   23079.34508864  .00037421  00000-0  14458-2 0  9993","2 48897  97.5836 214.8744 0008666 224.0402 136.0146 15.26117747 95833","2021-059U","48897","6865.568","94.357","493.383","481.483","0"
"GENERATED VIA SPACETRACK.ORG API","18 SPCS","48897","SPACEBEE-109","PAYLOAD","U","21059U","2023-03-20 16:09:00","694080","15.26142976","0.0008659","97.5835","215.207","222.853","137.2034","0","999","9588","0.0015034","0.00038952","0","3866115","0 SPACEBEE-109","1 48897U 21059U   23079.67292470  .00038952  00000-0  15034-2 0  9993","2 48897  97.5835 215.2070 0008659 222.8530 137.2034 15.26142976 95885","2021-059U","48897","6865.492","94.356","493.302","481.413","0"
"GENERATED VIA SPACETRACK.ORG API","18 SPCS","48897","SPACEBEE-109","PAYLOAD","U","21059U","2023-03-21 07:53:09","278304","15.26195885","0.0008664","97.5838","215.8723","221.002","139.0567","0","999","9598","0.0015344","0.00039825","0","3866730","0 SPACEBEE-109","1 48897U 21059U   23080.32857961  .00039825  00000-0  15344-2 0  9993","2 48897  97.5838 215.8723 0008664 221.0020 139.0567 15.26195885 95989","2021-059U","48897","6865.334","94.352","493.147","481.251","0"
"GENERATED VIA SPACETRACK.ORG API","18 SPCS","48897","SPACEBEE-109","PAYLOAD","U","21059U","2023-03-21 22:02:51","356544","15.26242891","0.0008621","97.5839","216.4712","219.0712","140.9904","0","999","9607","0.0015009","0.00039005","0","3866953","0 SPACEBEE-109","1 48897U 21059U   23080.91864996  .00039005  00000-0  15009-2 0  9992","2 48897  97.5839 216.4712 0008621 219.0712 140.9904 15.26242891 96070","2021-059U","48897","6865.193","94.349","492.976","481.139","0"
"GENERATED VIA SPACETRACK.ORG API","18 SPCS","48897","SPACEBEE-109","PAYLOAD","U","21059U","2023-03-22 02:46:05","1888","15.26259936","0.0008616","97.584","216.6708","218.2977","141.765","0","999","9610","0.0015844","0.00041212","0","3867107","0 SPACEBEE-109","1 48897U 21059U   23081.11533567  .00041212  00000-0  15844-2 0  9992","2 48897  97.5840 216.6708 0008616 218.2977 141.7650 15.26259936 96106","2021-059U","48897","6865.142","94.348","492.922","481.092","0"
"GENERATED VIA SPACETRACK.ORG API","18 SPCS","48897","SPACEBEE-109","PAYLOAD","U","21059U","2023-03-22 21:38:57","679872","15.26329631","0.0008585","97.5844","217.4692","215.2901","144.7769","0","999","9622","0.0015775","0.00041117","0","3868201","0 SPACEBEE-109","1 48897U 21059U   23081.90205648  .00041117  00000-0  15775-2 0  9992","2 48897  97.5844 217.4692 0008585 215.2901 144.7769 15.26329631 96227","2021-059U","48897","6864.933","94.344","492.691","480.904","0"
"GENERATED VIA SPACETRACK.ORG API","18 SPCS","48897","SPACEBEE-109","PAYLOAD","U","21059U","2023-03-23 08:39:47","67552","15.26363784","0.0008596","97.5848","217.9349","213.744","146.3252","0","999","9629","0.0013933","0.00036322","0","3868327","0 SPACEBEE-109","1 48897U 21059U   23082.36096143  .00036322  00000-0  13933-2 0  9997","2 48897  97.5848 217.9349 0008596 213.7440 146.3252 15.26363784 96297","2021-059U","48897","6864.830","94.342","492.596","480.794","0"
"GENERATED VIA SPACETRACK.ORG API","18 SPCS","48897","SPACEBEE-109","PAYLOAD","U","21059U","2023-03-23 08:39:47","67552","15.26363784","0.0008596","97.5848","217.9349","213.744","146.3252","0","999","9629","0.0013933","0.00036322","0","3868494","0 SPACEBEE-109","1 48897U 21059U   23082.36096143  .00036322  00000-0  13933-2 0  9997","2 48897  97.5848 217.9349 0008596 213.7440 146.3252 15.26363784 96297","2021-059U","48897","6864.830","94.342","492.596","480.794","0"
"GENERATED VIA SPACETRACK.ORG API","18 SPCS","48897","SPACEBEE-109","PAYLOAD","U","21059U","2023-03-23 19:40:35","280192","15.26421185","0.0008585","97.585","218.4008","212.2951","147.7762","0","999","9636","0.0021365","0.00055979","0","3868612","0 SPACEBEE-109","1 48897U 21059U   23082.81985278  .00055979  00000-0  21365-2 0  9990","2 48897  97.5850 218.4008 0008585 212.2951 147.7762 15.26421185 96366","2021-059U","48897","6864.658","94.338","492.417","480.630","0"
"GENERATED VIA SPACETRACK.ORG API","18 SPCS","48897","SPACEBEE-109","PAYLOAD","U","21059U","2023-03-23 21:14:59","220960","15.2642728","0.0008579","97.585","218.4673","212.051","148.0208","0","999","9637","0.0021256","0.00055701","0","3868816","0 SPACEBEE-109","1 48897U 21059U   23082.88540765  .00055701  00000-0  21256-2 0  9997","2 48897  97.5850 218.4673 0008579 212.0510 148.0208 15.26427280 96378","2021-059U","48897","6864.640","94.338","492.394","480.616","0"
"GENERATED VIA SPACETRACK.ORG API","18 SPCS","48897","SPACEBEE-109","PAYLOAD","U","21059U","2023-03-24 08:15:45","548352","15.26547923","0.0008548","97.5849","218.9331","210.7136","149.3603","0","999","9644","0.0052359","0.00139359","0","3869473","0 SPACEBEE-109","1 48897U 21059U   23083.34427718  .00139359  00000-0  52359-2 0  9991","2 48897  97.5849 218.9331 0008548 210.7136 149.3603 15.26547923 96445","2021-059U","48897","6864.278","94.330","492.011","480.276","0"
"GENERATED VIA SPACETRACK.ORG API","18 SPCS","48897","SPACEBEE-109","PAYLOAD","U","21059U","2023-03-24 08:15:45","548352","15.26547923","0.0008548","97.5849","218.9331","210.7136","149.3603","0","999","9644","0.0052359","0.00139359","0","3869846","0 SPACEBEE-109","1 48897U 21059U   23083.34427718  .00139359  00000-0  52359-2 0  9991","2 48897  97.5849 218.9331 0008548 210.7136 149.3603 15.26547923 96445","2021-059U","48897","6864.278","94.330","492.011","480.276","0"
"GENERATED VIA SPACETRACK.ORG API","18 SPCS","48897","SPACEBEE-109","PAYLOAD","U","21059U","2023-03-24 14:33:20","117376","15.26527089","0.0008582","97.5851","219.1995","209.9946","150.0802","0","999","9648","0.002604","0.00068577","0","3869702","0 SPACEBEE-109","1 48897U 21059U   23083.60648284  .00068577  00000-0  26040-2 0  9994","2 48897  97.5851 219.1995 0008582 209.9946 150.0802 15.26527089 96489","2021-059U","48897","6864.341","94.332","492.097","480.315","0"
"GENERATED VIA SPACETRACK.ORG API","18 SPCS","48897","SPACEBEE-109","PAYLOAD","U","21059U","2023-03-24 20:50:54","157632","15.26546519","0.0008581","97.585","219.4658","209.3713","150.7043","0","999","9652","0.0016152","0.00042385","0","3869931","0 SPACEBEE-109","1 48897U 21059U   23083.86868238  .00042385  00000-0  16152-2 0  9997","2 48897  97.5850 219.4658 0008581 209.3713 150.7043 15.26546519 96520","2021-059U","48897","6864.282","94.331","492.038","480.257","0"
"GENERATED VIA SPACETRACK.ORG API","18 SPCS","48897","SPACEBEE-109","PAYLOAD","U","21059U","2023-03-24 20:50:54","157632","15.26546519","0.0008581","97.585","219.4658","209.3713","150.7043","0","999","9652","0.0016152","0.00042385","0","3870109","0 SPACEBEE-109","1 48897U 21059U   23083.86868238  .00042385  00000-0  16152-2 0  9997","2 48897  97.5850 219.4658 0008581 209.3713 150.7043 15.26546519 96520","2021-059U","48897","6864.282","94.331","492.038","480.257","0"
"GENERATED VIA SPACETRACK.ORG API","18 SPCS","48897","SPACEBEE-109","PAYLOAD","U","21059U","2023-03-25 22:01:06","631968","15.26642456","0.0008573","97.5851","220.5307","205.6521","154.4293","0","999","9668","0.0017257","0.0004544","0","3871104","0 SPACEBEE-109","1 48897U 21059U   23084.91743787  .00045440  00000-0  17257-2 0  9997","2 48897  97.5851 220.5307 0008573 205.6521 154.4293 15.26642456 96684","2021-059U","48897","6863.995","94.325","491.744","479.975","0"
"GENERATED VIA SPACETRACK.ORG API","18 SPCS","48897","SPACEBEE-109","PAYLOAD","U","21059U","2023-03-26 02:44:15","836352","15.26658408","0.0008593","97.5851","220.7304","204.928","155.1544","0","999","9671","0.0015791","0.00041572","0","3871230","0 SPACEBEE-109","1 48897U 21059U   23085.11407218  .00041572  00000-0  15791-2 0  9999","2 48897  97.5851 220.7304 0008593 204.9280 155.1544 15.26658408 96714","2021-059U","48897","6863.947","94.324","491.710","479.914","0"
"GENERATED VIA SPACETRACK.ORG API","18 SPCS","48897","SPACEBEE-109","PAYLOAD","U","21059U","2023-03-26 21:36:51","121152","15.26717212","0.0008569","97.5853","221.5294","202.0913","157.9957","0","999","9683","0.0013949","0.00036755","0","3871964","0 SPACEBEE-109","1 48897U 21059U   23085.90059168  .00036755  00000-0  13949-2 0  9993","2 48897  97.5853 221.5294 0008569 202.0913 157.9957 15.26717212 96838","2021-059U","48897","6863.771","94.320","491.517","479.754","0"
"GENERATED VIA SPACETRACK.ORG API","18 SPCS","48897","SPACEBEE-109","PAYLOAD","U","21059U","2023-03-27 03:54:22","239360","15.26739267","0.0008568","97.5851","221.7956","201.2587","158.8297","0","999","9687","0.0015053","0.00039712","0","3872087","0 SPACEBEE-109","1 48897U 21059U   23086.16275740  .00039712  00000-0  15053-2 0  9992","2 48897  97.5851 221.7956 0008568 201.2587 158.8297 15.26739267 96875","2021-059U","48897","6863.705","94.319","491.451","479.689","0"
"GENERATED VIA SPACETRACK.ORG API","18 SPCS","48897","SPACEBEE-109","PAYLOAD","U","21059U","2023-03-27 08:37:30","390528","15.26755389","0.0008559","97.585","221.9955","200.7515","159.3377","0","999","9690","0.0014982","0.00039543","0","3872569","0 SPACEBEE-109","1 48897U 21059U   23086.35937952  .00039543  00000-0  14982-2 0  9995","2 48897  97.5850 221.9955 0008559 200.7515 159.3377 15.26755389 96902","2021-059U","48897","6863.656","94.318","491.396","479.647","0"
